{"type": "FeatureCollection", "features": [ {"type": "Feature", "properties": {"norad_id": 34529, "name": "IRIDIUM 33 DEB", "group": "iridium-33-debris", "lat": 13.006593552965974, "lon": -145.7816628312191, "alt_km": 754.2601779538809, "timestamp": "2025-12-13T13:34:35.425892+00:00", "meta": {"OBJECT_NAME": "IRIDIUM 33 DEB", "OBJECT_ID": "1997-051HW", "EPOCH": "2025-12-12T21:48:04.696416", "MEAN_MOTION": 14.40616063, "ECCENTRICITY": 0.00048321, "INCLINATION": 86.3641, "RA_OF_ASC_NODE": 35.34, "ARG_OF_PERICENTER": 176.2379, "MEAN_ANOMALY": 183.8857, "EPHEMERIS_TYPE": 0, "CLASSIFICATION_TYPE": "U", "NORAD_CAT_ID": 34529, "ELEMENT_SET_NO": 999, "REV_AT_EPOCH": 88144, "BSTAR": 0.00017131661, "MEAN_MOTION_DOT": 5.66e-06, "MEAN_MOTION_DDOT": 0}, "tle": {"line1": "1 34529U 97051HW  25346.90838769  .00000566  00000+0  17132-3 0  9998", "line2": "2 34529  86.3641  35.3400 0004832 176.2379 183.8857 14.40616063881446"}}, "geometry": {"type": "Point", "coordinates": [-145.7816628312191, 13.006593552965974]}}, {"type": "Feature", "properties": {"norad_id": 34538, "name": "IRIDIUM 33 DEB", "group": "iridium-33-debris", "lat": 10.111446314381817, "lon": 5.859547055226435, "alt_km": 734.8094379064287, "timestamp": "2025-12-13T13:34:35.425902+00:00", "meta": {"OBJECT_NAME": "IRIDIUM 33 DEB", "OBJECT_ID": "1997-051JF", "EPOCH": "2025-12-12T19:29:58.055136", "MEAN_MOTION": 14.42648871, "ECCENTRICITY": 0.0032777, "INCLINATION": 86.2773, "RA_OF_ASC_NODE": 5.524, "ARG_OF_PERICENTER": 327.8022, "MEAN_ANOMALY": 92.8362, "EPHEMERIS_TYPE": 0, "CLASSIFICATION_TYPE": "U", "NORAD_CAT_ID": 34538, "ELEMENT_SET_NO": 999, "REV_AT_EPOCH": 87757, "BSTAR": 0.0014020322, "MEAN_MOTION_DOT": 4.708e-05, "MEAN_MOTION_DDOT": 0}, "tle": {"line1": "1 34538U 97051JF  25346.81247749  .00004708  00000+0  14020-2 0  9994", "line2": "2 34538  86.2773   5.5240 0032777 327.8022  92.8362 14.42648871877573"}}, "geometry": {"type": "Point", "coordinates": [5.859547055226435, 10.111446314381817]}}, {"type": "Feature", "properties": {"norad_id": 34540, "name": "IRIDIUM 33 DEB", "group": "iridium-33-debris", "lat": 14.674755228290348, "lon": 126.26119590433024, "alt_km": 633.6602005480236, "timestamp": "2025-12-13T13:34:35.425911+00:00", "meta": {"OBJECT_NAME": "IRIDIUM 33 DEB", "OBJECT_ID": "1997-051JH", "EPOCH": "2025-12-12T16:27:37.491840", "MEAN_MOTION": 14.75322014, "ECCENTRICITY": 0.00164195, "INCLINATION": 86.3102, "RA_OF_ASC_NODE": 307.6317, "ARG_OF_PERICENTER": 159.2955, "MEAN_ANOMALY": 15.9185, "EPHEMERIS_TYPE": 0, "CLASSIFICATION_TYPE": "U", "NORAD_CAT_ID": 34540, "ELEMENT_SET_NO": 999, "REV_AT_EPOCH": 89020, "BSTAR": 0.0023425707, "MEAN_MOTION_DOT": 0.0001595, "MEAN_MOTION_DDOT": 0}, "tle": {"line1": "1 34540U 97051JH  25346.68585060  .00015950  00000+0  23426-2 0  9994", "line2": "2 34540  86.3102 307.6317 0016419 159.2955  15.9185 14.75322014890209"}}, "geometry": {"type": "Point", "coordinates": [126.26119590433024, 14.674755228290348]}}, {"type": "Feature", "properties": {"norad_id": 34648, "name": "IRIDIUM 33 DEB", "group": "iridium-33-debris", "lat": 57.516309149816585, "lon": 95.92274083343919, "alt_km": 980.0778007313475, "timestamp": "2025-12-13T13:34:35.425920+00:00", "meta": {"OBJECT_NAME": "IRIDIUM 33 DEB", "OBJECT_ID": "1997-051JZ", "EPOCH": "2025-12-12T06:21:55.340640", "MEAN_MOTION": 14.11481969, "ECCENTRICITY": 0.01828059, "INCLINATION": 86.3902, "RA_OF_ASC_NODE": 282.138, "ARG_OF_PERICENTER": 300.3991, "MEAN_ANOMALY": 57.9233, "EPHEMERIS_TYPE": 0, "CLASSIFICATION_TYPE": "U", "NORAD_CAT_ID": 34648, "ELEMENT_SET_NO": 999, "REV_AT_EPOCH": 84954, "BSTAR": 0.010984589, "MEAN_MOTION_DOT": 0.00023366, "MEAN_MOTION_DDOT": 0}, "tle": {"line1": "1 34648U 97051JZ  25346.26522385  .00023366  00000+0  10985-1 0  9993", "line2": "2 34648  86.3902 282.1380 0182805 300.3991  57.9233 14.11481969849541"}}, "geometry": {"type": "Point", "coordinates": [95.92274083343919, 57.516309149816585]}}, {"type": "Feature", "properties": {"norad_id": 34651, "name": "IRIDIUM 33 DEB", "group": "iridium-33-debris", "lat": -43.23224905897343, "lon": -36.27040849971739, "alt_km": 717.553168118634, "timestamp": "2025-12-13T13:34:35.425929+00:00", "meta": {"OBJECT_NAME": "IRIDIUM 33 DEB", "OBJECT_ID": "1997-051KC", "EPOCH": "2025-12-12T09:35:00.604320", "MEAN_MOTION": 14.25811069, "ECCENTRICITY": 0.01420847, "INCLINATION": 86.2833, "RA_OF_ASC_NODE": 140.7223, "ARG_OF_PERICENTER": 205.011, "MEAN_ANOMALY": 154.4154, "EPHEMERIS_TYPE": 0, "CLASSIFICATION_TYPE": "U", "NORAD_CAT_ID": 34651, "ELEMENT_SET_NO": 999, "REV_AT_EPOCH": 85891, "BSTAR": 0.0048807652, "MEAN_MOTION_DOT": 0.00012929, "MEAN_MOTION_DDOT": 0}, "tle": {"line1": "1 34651U 97051KC  25346.39931255  .00012929  00000+0  48808-2 0  9990", "line2": "2 34651  86.2833 140.7223 0142084 205.0110 154.4154 14.25811069858910"}}, "geometry": {"type": "Point", "coordinates": [-36.27040849971739, -43.23224905897343]}}, {"type": "Feature", "properties": {"norad_id": 34652, "name": "IRIDIUM 33 DEB", "group": "iridium-33-debris", "lat": 21.467615199001084, "lon": -18.92012919576729, "alt_km": 685.1087664724464, "timestamp": "2025-12-13T13:34:35.425938+00:00", "meta": {"OBJECT_NAME": "IRIDIUM 33 DEB", "OBJECT_ID": "1997-051KD", "EPOCH": "2025-12-11T23:57:08.973792", "MEAN_MOTION": 14.62047586, "ECCENTRICITY": 0.0025954, "INCLINATION": 86.3316, "RA_OF_ASC_NODE": 340.3318, "ARG_OF_PERICENTER": 300.945, "MEAN_ANOMALY": 114.4446, "EPHEMERIS_TYPE": 0, "CLASSIFICATION_TYPE": "U", "NORAD_CAT_ID": 34652, "ELEMENT_SET_NO": 999, "REV_AT_EPOCH": 88473, "BSTAR": 0.0015132, "MEAN_MOTION_DOT": 7.652e-05, "MEAN_MOTION_DDOT": 0}, "tle": {"line1": "1 34652U 97051KD  25345.99802053  .00007652  00000+0  15132-2 0  9990", "line2": "2 34652  86.3316 340.3318 0025954 300.9450 114.4446 14.62047586884734"}}, "geometry": {"type": "Point", "coordinates": [-18.92012919576729, 21.467615199001084]}}, {"type": "Feature", "properties": {"norad_id": 34690, "name": "IRIDIUM 33 DEB", "group": "iridium-33-debris", "lat": -43.455964186421575, "lon": -139.9273525156117, "alt_km": 723.1656134609984, "timestamp": "2025-12-13T13:34:35.425947+00:00", "meta": {"OBJECT_NAME": "IRIDIUM 33 DEB", "OBJECT_ID": "1997-051KM", "EPOCH": "2025-12-12T21:56:50.444736", "MEAN_MOTION": 14.55097314, "ECCENTRICITY": 0.00108506, "INCLINATION": 86.3784, "RA_OF_ASC_NODE": 36.9152, "ARG_OF_PERICENTER": 29.0413, "MEAN_ANOMALY": 25.3657, "EPHEMERIS_TYPE": 0, "CLASSIFICATION_TYPE": "U", "NORAD_CAT_ID": 34690, "ELEMENT_SET_NO": 999, "REV_AT_EPOCH": 88097, "BSTAR": 0.0006877799, "MEAN_MOTION_DOT": 2.989e-05, "MEAN_MOTION_DDOT": 0}, "tle": {"line1": "1 34690U 97051KM  25346.91447274  .00002989  00000+0  68778-3 0  9998", "line2": "2 34690  86.3784  36.9152 0010850  29.0413  25.3657 14.55097314880978"}}, "geometry": {"type": "Point", "coordinates": [-139.9273525156117, -43.455964186421575]}}, {"type": "Feature", "properties": {"norad_id": 34693, "name": "IRIDIUM 33 DEB", "group": "iridium-33-debris", "lat": 51.37526396792533, "lon": 118.77670649057008, "alt_km": 474.55129007787855, "timestamp": "2025-12-13T13:34:35.425957+00:00", "meta": {"OBJECT_NAME": "IRIDIUM 33 DEB", "OBJECT_ID": "1997-051KQ", "EPOCH": "2025-12-12T21:33:47.712960", "MEAN_MOTION": 15.27980869, "ECCENTRICITY": 0.00139664, "INCLINATION": 86.3056, "RA_OF_ASC_NODE": 303.7467, "ARG_OF_PERICENTER": 52.9772, "MEAN_ANOMALY": 7.323, "EPHEMERIS_TYPE": 0, "CLASSIFICATION_TYPE": "U", "NORAD_CAT_ID": 34693, "ELEMENT_SET_NO": 999, "REV_AT_EPOCH": 88917, "BSTAR": 0.0063067576, "MEAN_MOTION_DOT": 0.00176337, "MEAN_MOTION_DDOT": 0}, "tle": {"line1": "1 34693U 97051KQ  25346.89846890  .00176337  00000+0  63068-2 0  9990", "line2": "2 34693  86.3056 303.7467 0013966  52.9772   7.3230 15.27980869889175"}}, "geometry": {"type": "Point", "coordinates": [118.77670649057008, 51.37526396792533]}}, {"type": "Feature", "properties": {"norad_id": 34696, "name": "IRIDIUM 33 DEB", "group": "iridium-33-debris", "lat": 30.827241640238974, "lon": 29.420360696451663, "alt_km": 710.8323648833502, "timestamp": "2025-12-13T13:34:35.425966+00:00", "meta": {"OBJECT_NAME": "IRIDIUM 33 DEB", "OBJECT_ID": "1997-051KT", "EPOCH": "2025-12-11T02:33:26.982720", "MEAN_MOTION": 14.64953116, "ECCENTRICITY": 0.00741481, "INCLINATION": 86.185, "RA_OF_ASC_NODE": 28.2818, "ARG_OF_PERICENTER": 173.0229, "MEAN_ANOMALY": 217.0787, "EPHEMERIS_TYPE": 0, "CLASSIFICATION_TYPE": "U", "NORAD_CAT_ID": 34696, "ELEMENT_SET_NO": 999, "REV_AT_EPOCH": 86649, "BSTAR": 0.0075396538, "MEAN_MOTION_DOT": 0.00042238, "MEAN_MOTION_DDOT": 0}, "tle": {"line1": "1 34696U 97051KT  25345.10656230  .00042238  00000+0  75397-2 0  9993", "line2": "2 34696  86.1850  28.2818 0074148 173.0229 217.0787 14.64953116866490"}}, "geometry": {"type": "Point", "coordinates": [29.420360696451663, 30.827241640238974]}}, {"type": "Feature", "properties": {"norad_id": 34765, "name": "IRIDIUM 33 DEB", "group": "iridium-33-debris", "lat": -28.826511878159266, "lon": -145.57360337964252, "alt_km": 751.869383469234, "timestamp": "2025-12-13T13:34:35.425975+00:00", "meta": {"OBJECT_NAME": "IRIDIUM 33 DEB", "OBJECT_ID": "1997-051LJ", "EPOCH": "2025-12-12T22:10:07.180608", "MEAN_MOTION": 14.40466393, "ECCENTRICITY": 0.00154572, "INCLINATION": 86.3397, "RA_OF_ASC_NODE": 32.6828, "ARG_OF_PERICENTER": 210.8108, "MEAN_ANOMALY": 270.909, "EPHEMERIS_TYPE": 0, "CLASSIFICATION_TYPE": "U", "NORAD_CAT_ID": 34765, "ELEMENT_SET_NO": 999, "REV_AT_EPOCH": 87616, "BSTAR": 0.00063476555, "MEAN_MOTION_DOT": 2.039e-05, "MEAN_MOTION_DDOT": 0}, "tle": {"line1": "1 34765U 97051LJ  25346.92369422  .00002039  00000+0  63477-3 0  9997", "line2": "2 34765  86.3397  32.6828 0015457 210.8108 270.9090 14.40466393876169"}}, "geometry": {"type": "Point", "coordinates": [-145.57360337964252, -28.826511878159266]}}]}